[{"OBJECT_NAME":"STARLINK-35360","OBJECT_ID":"2025-259Y","EPOCH":"2026-03-09T22:34:38.995104","MEAN_MOTION":15.27603584,"ECCENTRICITY":0.0002299,"INCLINATION":43.005,"RA_OF_ASC_NODE":272.5823,"ARG_OF_PERICENTER":295.7841,"MEAN_ANOMALY":64.2773,"EPHEMERIS_TYPE":0,"CLASSIFICATION_TYPE":"U","NORAD_CAT_ID":66444,"ELEMENT_SET_NO":999,"REV_AT_EPOCH":1953,"BSTAR":0.00088901469,"MEAN_MOTION_DOT":0.000243,"MEAN_MOTION_DDOT":0},{"OBJECT_NAME":"OBJECT E","OBJECT_ID":"2026-023E","EPOCH":"2026-03-09T23:33:47.695392","MEAN_MOTION":15.23129165,"ECCENTRICITY":0.00204824,"INCLINATION":96.6311,"RA_OF_ASC_NODE":141.8855,"ARG_OF_PERICENTER":125.9066,"MEAN_ANOMALY":234.4078,"EPHEMERIS_TYPE":0,"CLASSIFICATION_TYPE":"U","NORAD_CAT_ID":67678,"ELEMENT_SET_NO":999,"REV_AT_EPOCH":489,"BSTAR":0.00066049733,"MEAN_MOTION_DOT":0.00015639,"MEAN_MOTION_DDOT":0}]
